[{"OBJECT_NAME":"LEMUR-2-GREENBERG","OBJECT_ID":"2017-042N","EPOCH":"2026-03-09T11:05:17.256192","MEAN_MOTION":15.27971352,"ECCENTRICITY":0.00091572,"INCLINATION":97.3781,"RA_OF_ASC_NODE":249.8007,"ARG_OF_PERICENTER":4.0119,"MEAN_ANOMALY":356.1192,"EPHEMERIS_TYPE":0,"CLASSIFICATION_TYPE":"U","NORAD_CAT_ID":42837,"ELEMENT_SET_NO":999,"REV_AT_EPOCH":47314,"BSTAR":0.00072539172,"MEAN_MOTION_DOT":0.00019778,"MEAN_MOTION_DDOT":0},{"OBJECT_NAME":"STARLINK-36526","OBJECT_ID":"2026-012R","EPOCH":"2026-03-09T09:44:58.365312","MEAN_MOTION":15.27578132,"ECCENTRICITY":0.00015836,"INCLINATION":43.0032,"RA_OF_ASC_NODE":315.5476,"ARG_OF_PERICENTER":256.5628,"MEAN_ANOMALY":103.5047,"EPHEMERIS_TYPE":0,"CLASSIFICATION_TYPE":"U","NORAD_CAT_ID":67508,"ELEMENT_SET_NO":999,"REV_AT_EPOCH":772,"BSTAR":0.00062731391,"MEAN_MOTION_DOT":0.00017039,"MEAN_MOTION_DDOT":0}]
